ASTROCAST-0404          
1 55112U 23001DH  26068.80836714  .00008870  00000+0  34436-3 0  9994
2 55112  97.5646 161.5422 0006847   1.1317 358.9936 15.26309833129366
STARLINK-30896          
1 58353U 23177C   26068.42455781  .00000295  00000+0  20241-4 0  9990
2 58353  42.9994 210.2995 0000928 271.5570  88.5175 15.27575550129791
